0 COSMOS 1241
1 12149U 81006A   13282.49404498 -.00000081  00000-0 -86793-6 0  9901
2 12149 065.8265 008.5469 0022482 247.8154 179.4659 13.72138729639262
0 COSMOS 1241
1 12149U 81006A   13283.82081102 -.00000066  00000-0  15957-4 0  9917
2 12149 065.8264 005.2841 0022422 247.4200 253.0379 13.72138709639447
0 COSMOS 1241
1 12149U 81006A   13286.20391196 -.00000057  00000-0  25175-4 0  9934
2 12149 065.8261 359.4236 0022323 246.6828 144.4106 13.72138454639777
0 COSMOS 1241
1 12149U 81006A   13287.45043036 -.00000043  00000-0  41146-4 0  9941
2 12149 065.8258 356.3580 0022284 246.3233 181.5866 13.72138506639946
0 COSMOS 1241
1 12149U 81006A   13288.47481522 -.00000031  00000-0  53409-4 0  9953
2 12149 065.8256 353.8388 0022241 246.0243 201.5375 13.72138640640087
0 COSMOS 1241
1 12149U 81006A   13289.79487015 -.00000058  00000-0  23862-4 0  9962
2 12149 065.8254 350.5923 0022197 245.6581 241.9311 13.72138800640260
0 COSMOS 1241
1 12149U 81006A   13290.81457833 -.00000070  00000-0  10631-4 0  9977
2 12149 065.8252 348.0844 0022163 245.3786 238.7635 13.72138829640409
0 COSMOS 1241
1 12149U 81006A   13292.18869520 -.00000087  00000-0 -74133-5 0  9987
2 12149 065.8251 344.7049 0022100 244.9208 186.2733 13.72139046640591
0 COSMOS 1241
1 12149U 81006A   13293.20632819 -.00000076  00000-0  49803-5 0  9994
2 12149 065.8251 342.2022 0022066 244.6218 172.8772 13.72139147640736
0 COSMOS 1241
1 12149U 81006A   13294.52372791 -.00000066  00000-0  15365-4 0    07
2 12149 065.8250 338.9621 0022010 244.2328 200.1828 13.72139093640916
0 COSMOS 1241
1 12149U 81006A   13295.70103568 -.00000078  00000-0  18557-5 0    13
2 12149 065.8249 336.0666 0021960 243.9113 255.4764 13.72138908641077
